# Made by eph2tle, compiled Dec 17 2024 20:30:40
# Run at Sun Dec 22 11:38:23 2024
#
#    The following TLEs (Two-Line Elements) were generated by fitting
# a numerically-integrated ephemeris,  based on the orbit given below,
# to the SDP4/SGP4 models.  Each TLE is good for the interval between
# its epoch and the epoch of the subsequent TLE (usually one day).
# The maximum deviation between the numerically integrated ephemerides
# and the TLE-based ephemeris, in kilometers,  is given for each TLE
# as the "worst residual".
#
#    This fitting is done using the 'eph2tle' code packaged with Find_Orb.
# The code has details on how the TLEs were computed :
#
#    https://github.com/Bill-Gray/find_orb/eph2tle.cpp
#
#    Be warned:  the error given is that between the numerically
# integrated ephems and the TLE model.  There will usually be at
# least some additional difference between the ephems and the actual
# motion of the satellite,  especially if the ephemerides are based
# on a short arc.  If the following orbital elements say something
# like "[based on] 10 observations 2015 Jan. 1-13",  and the TLEs
# are for 2015 May,  the extrapolation may be tenuous at best.  If
# your application requires a specific level of accuracy,  you may
# want to contact me;  I can give you some idea as to the fit of the
# underlying data (and possibly TLEs based on newer data).
#
#   You can usually find the underlying observational data,  and the
# fitted orbit,  residuals,  ephemerides,  and sometimes some comments
# about the object,  among the pages listed at
#
#    https://www.projectpluto.com/pluto/mpecs/pseudo.htm
#
#    Also,  if you use a TLE outside the "correct" time range (between
# its MJD and that of the next TLE),  all bets are off.  I've carefully
# computed and minimized the worst error over the "correct" time frame,
# but the ephemeris may (or may not) diverge wildly outside of it.
#
# Ephem range: 60676.000000 60980.000000 1.000000
# Created Sun Dec 22 11:38:19 2024
# Ephemeris start:  1 Jan 2025  0:00:00
# Ephemeris end:    1 Nov 2025  0:00:00
# Times are all TDT
# Positions/velocities are in equatorial J2000
# Orbital elements:  2023-098C = NORAD 57770 = Chandrayaan-3 PM
#    Perigee 2024 Dec 10.627978 +/- 0.000231 TT = 15:04:17.2 (JD 2460655.127978)
# Epoch 2024 Dec  9.0 TT = JDT 2460653.5                           Find_Orb
# M 311.918320778 +/- 0.006           (J2000 equator)
# n  29.534604919 +/- 0.000256        Peri.  345.455931 +/- 0.0033
# a223725.7962 +/- 1.29               Node     8.438541 +/- 0.0026
# e   0.39709269 +/- 1.41e-5          Incl.   32.215263 +/- 0.0014
# P  12.1889d                H 28.14  G  0.15   U  7.2
# q 134885.9167 +/- 3.78    Q 312565.6756 +/- 2.11
# 89 of 146 observations 2024 Oct. 6-Dec. 16; mean residual 34".840
#
# 1 NoradU COSPAR   Epoch.epoch     dn/dt/2  d2n/dt2/6 BSTAR    T El# C
# 2 NoradU Inclina RAAscNode Eccent  ArgPeri MeanAno  MeanMotion Rev# C

# Worst residual: 56.31 km
# MJD 60676.000000 (2025 Jan  1  0:00)
2023-098C = NORAD 57770 = Chandrayaan-3 PM
1 57770U 23098C   25001.49919926  .00000000  00000-0  00000-0 0 25487
2 57770 032.4519 008.0406 4313865 338.7952 300.1108 00.07996630    00

# Worst residual: 106.83 km
# MJD 60677.000000 (2025 Jan  2  0:00)
2023-098C = NORAD 57770 = Chandrayaan-3 PM
1 57770U 23098C   25002.49919926  .00000000  00000-0  00000-0 0 25488
2 57770 032.4846 008.0332 4459625 338.5079 329.8878 00.07780583    04

# Worst residual: 142.60 km
# MJD 60678.000000 (2025 Jan  3  0:00)
2023-098C = NORAD 57770 = Chandrayaan-3 PM
1 57770U 23098C   25003.49919926  .00000000  00000-0  00000-0 0 25489
2 57770 032.4926 008.0501 4529195 340.4298 357.2370 00.07757870    01

# Worst residual: 66.02 km
# MJD 60679.000000 (2025 Jan  4  0:00)
2023-098C = NORAD 57770 = Chandrayaan-3 PM
1 57770U 23098C   25004.49919926  .00000000  00000-0  00000-0 0 25480
2 57770 032.4569 008.0447 4378307 341.7293 025.7911 00.08012492    02

# Worst residual: 35.29 km
# MJD 60680.000000 (2025 Jan  5  0:00)
2023-098C = NORAD 57770 = Chandrayaan-3 PM
1 57770U 23098C   25005.49919926  .00000000  00000-0  00000-0 0 25481
2 57770 032.4523 007.9997 4289957 341.9919 055.4617 00.08109391    07

# Worst residual: 21.55 km
# MJD 60681.000000 (2025 Jan  6  0:00)
2023-098C = NORAD 57770 = Chandrayaan-3 PM
1 57770U 23098C   25006.49919926  .00000000  00000-0  00000-0 0 25482
2 57770 032.4616 007.9724 4244281 342.1351 085.0367 00.08126222    05

# Worst residual: 14.24 km
# MJD 60682.000000 (2025 Jan  7  0:00)
2023-098C = NORAD 57770 = Chandrayaan-3 PM
1 57770U 23098C   25007.49919926  .00000000  00000-0  00000-0 0 25483
2 57770 032.4700 007.9604 4213457 342.1649 114.5553 00.08125930    07

# Worst residual: 11.32 km
# MJD 60683.000000 (2025 Jan  8  0:00)
2023-098C = NORAD 57770 = Chandrayaan-3 PM
1 57770U 23098C   25008.49919926  .00000000  00000-0  00000-0 0 25484
2 57770 032.4775 007.9479 4191044 342.0865 144.1177 00.08122582    06

# Worst residual: 14.85 km
# MJD 60684.000000 (2025 Jan  9  0:00)
2023-098C = NORAD 57770 = Chandrayaan-3 PM
1 57770U 23098C   25009.49919926  .00000000  00000-0  00000-0 0 25485
2 57770 032.4840 007.9343 4170898 341.9196 173.7643 00.08113039    01

# Worst residual: 22.83 km
# MJD 60685.000000 (2025 Jan 10  0:00)
2023-098C = NORAD 57770 = Chandrayaan-3 PM
1 57770U 23098C   25010.49919926  .00000000  00000-0  00000-0 0 25487
2 57770 032.4903 007.9189 4147614 341.6128 203.5591 00.08089623    06

# Worst residual: 34.73 km
# MJD 60686.000000 (2025 Jan 11  0:00)
2023-098C = NORAD 57770 = Chandrayaan-3 PM
1 57770U 23098C   25011.49919926  .00000000  00000-0  00000-0 0 25488
2 57770 032.4917 007.9012 4120669 341.0289 233.6038 00.08040327    07

# Worst residual: 49.64 km
# MJD 60687.000000 (2025 Jan 12  0:00)
2023-098C = NORAD 57770 = Chandrayaan-3 PM
1 57770U 23098C   25012.49919926  .00000000  00000-0  00000-0 0 25489
2 57770 032.4924 007.8765 4105745 340.0532 263.9200 00.07951566    09

# Worst residual: 56.98 km
# MJD 60688.000000 (2025 Jan 13  0:00)
2023-098C = NORAD 57770 = Chandrayaan-3 PM
1 57770U 23098C   25013.49919926  .00000000  00000-0  00000-0 0 25480
2 57770 032.5032 007.8493 4137953 338.8110 294.2401 00.07805681    07

# Worst residual: 104.30 km
# MJD 60689.000000 (2025 Jan 14  0:00)
2023-098C = NORAD 57770 = Chandrayaan-3 PM
1 57770U 23098C   25014.49919926  .00000000  00000-0  00000-0 0 25481
2 57770 032.5328 007.8480 4261906 338.2332 323.5127 00.07601681    02

# Worst residual: 144.91 km
# MJD 60690.000000 (2025 Jan 15  0:00)
2023-098C = NORAD 57770 = Chandrayaan-3 PM
1 57770U 23098C   25015.49919926  .00000000  00000-0  00000-0 0 25482
2 57770 032.5441 007.8985 4370126 340.2208 350.1509 00.07543839    08

# Worst residual: 75.35 km
# MJD 60691.000000 (2025 Jan 16  0:00)
2023-098C = NORAD 57770 = Chandrayaan-3 PM
1 57770U 23098C   25016.49919926  .00000000  00000-0  00000-0 0 25483
2 57770 032.5043 007.8968 4241366 342.0547 017.4932 00.07794342    06

# Worst residual: 41.45 km
# MJD 60692.000000 (2025 Jan 17  0:00)
2023-098C = NORAD 57770 = Chandrayaan-3 PM
1 57770U 23098C   25017.49919926  .00000000  00000-0  00000-0 0 25484
2 57770 032.4918 007.8504 4125820 342.0096 046.9222 00.07967026    07

# Worst residual: 23.73 km
# MJD 60693.000000 (2025 Jan 18  0:00)
2023-098C = NORAD 57770 = Chandrayaan-3 PM
1 57770U 23098C   25018.49919926  .00000000  00000-0  00000-0 0 25485
2 57770 032.4967 007.8255 4074777 341.7707 076.5185 00.08028799    06

# Worst residual: 16.93 km
# MJD 60694.000000 (2025 Jan 19  0:00)
2023-098C = NORAD 57770 = Chandrayaan-3 PM
1 57770U 23098C   25019.49919926  .00000000  00000-0  00000-0 0 25486
2 57770 032.5062 007.8027 4043379 341.6537 105.9642 00.08045719    00

# Worst residual: 13.86 km
# MJD 60695.000000 (2025 Jan 20  0:00)
2023-098C = NORAD 57770 = Chandrayaan-3 PM
1 57770U 23098C   25020.49919926  .00000000  00000-0  00000-0 0 25488
2 57770 032.5132 007.7898 4016833 341.5073 135.4209 00.08047375    09

# Worst residual: 18.36 km
# MJD 60696.000000 (2025 Jan 21  0:00)
2023-098C = NORAD 57770 = Chandrayaan-3 PM
1 57770U 23098C   25021.49919926  .00000000  00000-0  00000-0 0 25489
2 57770 032.5248 007.7693 3990167 341.2806 164.9763 00.08037948    08

# Worst residual: 23.87 km
# MJD 60697.000000 (2025 Jan 22  0:00)
2023-098C = NORAD 57770 = Chandrayaan-3 PM
1 57770U 23098C   25022.49919926  .00000000  00000-0  00000-0 0 25480
2 57770 032.5346 007.7524 3962262 340.9068 194.6640 00.08014928    08

# Worst residual: 31.00 km
# MJD 60698.000000 (2025 Jan 23  0:00)
2023-098C = NORAD 57770 = Chandrayaan-3 PM
1 57770U 23098C   25023.49919926  .00000000  00000-0  00000-0 0 25481
2 57770 032.5429 007.7359 3929466 340.2981 224.4981 00.07968062    08

# Worst residual: 40.54 km
# MJD 60699.000000 (2025 Jan 24  0:00)
2023-098C = NORAD 57770 = Chandrayaan-3 PM
1 57770U 23098C   25024.49919926  .00000000  00000-0  00000-0 0 25482
2 57770 032.5469 007.7174 3892733 339.2799 254.4947 00.07882214    07

# Worst residual: 48.66 km
# MJD 60700.000000 (2025 Jan 25  0:00)
2023-098C = NORAD 57770 = Chandrayaan-3 PM
1 57770U 23098C   25025.49919926  .00000000  00000-0  00000-0 0 25483
2 57770 032.5450 007.6891 3866935 337.7000 284.5405 00.07740383    08

# Worst residual: 33.35 km
# MJD 60701.000000 (2025 Jan 26  0:00)
2023-098C = NORAD 57770 = Chandrayaan-3 PM
1 57770U 23098C   25026.49919926  .00000000  00000-0  00000-0 0 25484
2 57770 032.5445 007.6437 3885835 336.1269 313.8048 00.07567414    09

# Worst residual: 54.30 km
# MJD 60702.000000 (2025 Jan 27  0:00)
2023-098C = NORAD 57770 = Chandrayaan-3 PM
1 57770U 23098C   25027.49919926  .00000000  00000-0  00000-0 0 25485
2 57770 032.5531 007.6300 3911268 336.6587 340.7340 00.07559109    08

# Worst residual: 43.78 km
# MJD 60703.000000 (2025 Jan 28  0:00)
2023-098C = NORAD 57770 = Chandrayaan-3 PM
1 57770U 23098C   25028.49919926  .00000000  00000-0  00000-0 0 25486
2 57770 032.5357 007.6303 3824848 337.8803 007.7133 00.07757195    03
